[{"OBJECT_NAME":"STARLINK-4199","OBJECT_ID":"2022-062AD","EPOCH":"2026-03-09T06:48:29.044800","MEAN_MOTION":15.0883942,"ECCENTRICITY":0.00014174,"INCLINATION":53.2185,"RA_OF_ASC_NODE":25.944,"ARG_OF_PERICENTER":88.0503,"MEAN_ANOMALY":272.0652,"EPHEMERIS_TYPE":0,"CLASSIFICATION_TYPE":"U","NORAD_CAT_ID":52857,"ELEMENT_SET_NO":999,"REV_AT_EPOCH":20586,"BSTAR":-7.6589e-8,"MEAN_MOTION_DOT":-2.89e-6,"MEAN_MOTION_DDOT":0},{"OBJECT_NAME":"COSMOS 249 DEB","OBJECT_ID":"1968-091CY","EPOCH":"2026-03-09T21:07:59.374848","MEAN_MOTION":14.52283222,"ECCENTRICITY":0.03386329,"INCLINATION":62.3952,"RA_OF_ASC_NODE":260.6441,"ARG_OF_PERICENTER":176.0549,"MEAN_ANOMALY":184.3323,"EPHEMERIS_TYPE":0,"CLASSIFICATION_TYPE":"U","NORAD_CAT_ID":15535,"ELEMENT_SET_NO":999,"REV_AT_EPOCH":94239,"BSTAR":0.0018935012,"MEAN_MOTION_DOT":0.00016406,"MEAN_MOTION_DDOT":0}]
